[
    {
       "CCSDS_OMM_VERS":"2.0",
       "COMMENT":"GENERATED VIA SPACE-TRACK.ORG API",
       "CREATION_DATE":"2022-01-24T06:46:12",
       "ORIGINATOR":"18 SPCS",
       "OBJECT_NAME":"DRAGON CRS-24",
       "OBJECT_ID":"2021-127A",
       "CENTER_NAME":"EARTH",
       "REF_FRAME":"TEME",
       "TIME_SYSTEM":"UTC",
       "MEAN_ELEMENT_THEORY":"SGP4",
       "EPOCH":"2022-01-24T05:49:03.029088",
       "MEAN_MOTION":"15.98636115",
       "ECCENTRICITY":"0.01402830",
       "INCLINATION":"51.6428",
       "RA_OF_ASC_NODE":"329.2624",
       "ARG_OF_PERICENTER":"68.3239",
       "MEAN_ANOMALY":"293.2582",
       "EPHEMERIS_TYPE":"0",
       "CLASSIFICATION_TYPE":"U",
       "NORAD_CAT_ID":"50318",
       "ELEMENT_SET_NO":"999",
       "REV_AT_EPOCH":"524",
       "BSTAR":"0.00029666000000",
       "MEAN_MOTION_DOT":"0.00460259",
       "MEAN_MOTION_DDOT":"0.0000114130000",
       "SEMIMAJOR_AXIS":"6656.339",
       "PERIOD":"90.077",
       "APOAPSIS":"371.581",
       "PERIAPSIS":"184.827",
       "OBJECT_TYPE":"PAYLOAD",
       "RCS_SIZE":"LARGE",
       "COUNTRY_CODE":"US",
       "LAUNCH_DATE":"2021-12-21",
       "SITE":"AFETR",
       "DECAY_DATE":"2022-01-24",
       "FILE":"3281311",
       "GP_ID":"194500227",
       "TLE_LINE0":"0 DRAGON CRS-24",
       "TLE_LINE1":"1 50318U 21127A   22024.24239617  .00460259  11413-4  29666-3 0  9996",
       "TLE_LINE2":"2 50318  51.6428 329.2624 0140283  68.3239 293.2582 15.98636115  5249"
    },
    {
       "CCSDS_OMM_VERS":"2.0",
       "COMMENT":"GENERATED VIA SPACE-TRACK.ORG API",
       "CREATION_DATE":"2022-02-10T00:36:11",
       "ORIGINATOR":"18 SPCS",
       "OBJECT_NAME":"H-2A R\/B",
       "OBJECT_ID":"2021-128B",
       "CENTER_NAME":"EARTH",
       "REF_FRAME":"TEME",
       "TIME_SYSTEM":"UTC",
       "MEAN_ELEMENT_THEORY":"SGP4",
       "EPOCH":"2022-02-08T06:27:34.647264",
       "MEAN_MOTION":"11.56865201",
       "ECCENTRICITY":"0.21784050",
       "INCLINATION":"29.8354",
       "RA_OF_ASC_NODE":"351.6756",
       "ARG_OF_PERICENTER":"187.3947",
       "MEAN_ANOMALY":"336.4847",
       "EPHEMERIS_TYPE":"0",
       "CLASSIFICATION_TYPE":"U",
       "NORAD_CAT_ID":"50320",
       "ELEMENT_SET_NO":"999",
       "REV_AT_EPOCH":"56",
       "BSTAR":"0.00000000000000",
       "MEAN_MOTION_DOT":"0.00001532",
       "MEAN_MOTION_DDOT":"-0.0000095745000",
       "SEMIMAJOR_AXIS":"8258.097",
       "PERIOD":"124.474",
       "APOAPSIS":"3678.911",
       "PERIAPSIS":"81.014",
       "OBJECT_TYPE":"ROCKET BODY",
       "RCS_SIZE":"LARGE",
       "COUNTRY_CODE":"JPN",
       "LAUNCH_DATE":"2021-12-22",
       "SITE":"TNSTA",
       "DECAY_DATE":"2022-02-08",
       "FILE":"3296306",
       "GP_ID":"195649378",
       "TLE_LINE0":"0 H-2A R\/B",
       "TLE_LINE1":"1 50320U 21128B   22039.26915101  .00001532 -95745-5  00000+0 0  9991",
       "TLE_LINE2":"2 50320  29.8354 351.6756 2178405 187.3947 336.4847 11.56865201   563"
    },
    {
       "CCSDS_OMM_VERS":"2.0",
       "COMMENT":"GENERATED VIA SPACE-TRACK.ORG API",
       "CREATION_DATE":"2022-01-05T20:26:20",
       "ORIGINATOR":"18 SPCS",
       "OBJECT_NAME":"IPM 3\/PERSEY",
       "OBJECT_ID":"2021-133A",
       "CENTER_NAME":"EARTH",
       "REF_FRAME":"TEME",
       "TIME_SYSTEM":"UTC",
       "MEAN_ELEMENT_THEORY":"SGP4",
       "EPOCH":"2022-01-05T20:09:01.221408",
       "MEAN_MOTION":"16.60111302",
       "ECCENTRICITY":"0.00074800",
       "INCLINATION":"63.3915",
       "RA_OF_ASC_NODE":"309.0070",
       "ARG_OF_PERICENTER":"275.6320",
       "MEAN_ANOMALY":"180.7206",
       "EPHEMERIS_TYPE":"0",
       "CLASSIFICATION_TYPE":"U",
       "NORAD_CAT_ID":"50505",
       "ELEMENT_SET_NO":"999",
       "REV_AT_EPOCH":"148",
       "BSTAR":"0.00006080700000",
       "MEAN_MOTION_DOT":"0.21759126",
       "MEAN_MOTION_DDOT":"0.0000089296000",
       "SEMIMAJOR_AXIS":"6490.981",
       "PERIOD":"86.741",
       "APOAPSIS":"117.702",
       "PERIAPSIS":"107.991",
       "OBJECT_TYPE":"PAYLOAD",
       "RCS_SIZE":"LARGE",
       "COUNTRY_CODE":"CIS",
       "LAUNCH_DATE":"2021-12-27",
       "SITE":"PKMTR",
       "DECAY_DATE":"2022-01-05",
       "FILE":"3264682",
       "GP_ID":"193256285",
       "TLE_LINE0":"0 IPM 3\/PERSEY",
       "TLE_LINE1":"1 50505U 21133A   22005.83959747  .21759126  89296-5  60807-4 0  9993",
       "TLE_LINE2":"2 50505  63.3915 309.0070 0007480 275.6320 180.7206 16.60111302  1485"
    },
    {
       "CCSDS_OMM_VERS":"2.0",
       "COMMENT":"GENERATED VIA SPACE-TRACK.ORG API",
       "CREATION_DATE":"2022-09-15T00:26:11",
       "ORIGINATOR":"18 SPCS",
       "OBJECT_NAME":"CZ-3B R\/B",
       "OBJECT_ID":"2021-135B",
       "CENTER_NAME":"EARTH",
       "REF_FRAME":"TEME",
       "TIME_SYSTEM":"UTC",
       "MEAN_ELEMENT_THEORY":"SGP4",
       "EPOCH":"2022-09-14T23:12:30.000096",
       "MEAN_MOTION":"15.22266935",
       "ECCENTRICITY":"0.06205630",
       "INCLINATION":"26.5102",
       "RA_OF_ASC_NODE":"11.7092",
       "ARG_OF_PERICENTER":"18.7985",
       "MEAN_ANOMALY":"309.6287",
       "EPHEMERIS_TYPE":"0",
       "CLASSIFICATION_TYPE":"U",
       "NORAD_CAT_ID":"50575",
       "ELEMENT_SET_NO":"999",
       "REV_AT_EPOCH":"1330",
       "BSTAR":"0.00004601800000",
       "MEAN_MOTION_DOT":"0.13193849",
       "MEAN_MOTION_DDOT":"-0.0000075862000",
       "SEMIMAJOR_AXIS":"6877.142",
       "PERIOD":"94.596",
       "APOAPSIS":"925.777",
       "PERIAPSIS":"72.237",
       "OBJECT_TYPE":"ROCKET BODY",
       "RCS_SIZE":"LARGE",
       "COUNTRY_CODE":"PRC",
       "LAUNCH_DATE":"2021-12-29",
       "SITE":"XSC",
       "DECAY_DATE":"2022-09-15",
       "FILE":"3574278",
       "GP_ID":"212590340",
       "TLE_LINE0":"0 CZ-3B R\/B",
       "TLE_LINE1":"1 50575U 21135B   22257.96701389  .13193849 -75862-5  46018-4 0  9990",
       "TLE_LINE2":"2 50575  26.5102  11.7092 0620563  18.7985 309.6287 15.22266935 13303"
    },
    {
       "CCSDS_OMM_VERS":"2.0",
       "COMMENT":"GENERATED VIA SPACE-TRACK.ORG API",
       "CREATION_DATE":"2022-02-01T00:06:11",
       "ORIGINATOR":"18 SPCS",
       "OBJECT_NAME":"DRAGON CRS-24 DEB",
       "OBJECT_ID":"2021-127B",
       "CENTER_NAME":"EARTH",
       "REF_FRAME":"TEME",
       "TIME_SYSTEM":"UTC",
       "MEAN_ELEMENT_THEORY":"SGP4",
       "EPOCH":"2022-01-31T22:19:10.730784",
       "MEAN_MOTION":"16.44130108",
       "ECCENTRICITY":"0.00289630",
       "INCLINATION":"51.6384",
       "RA_OF_ASC_NODE":"287.5343",
       "ARG_OF_PERICENTER":"102.4546",
       "MEAN_ANOMALY":"258.5101",
       "EPHEMERIS_TYPE":"0",
       "CLASSIFICATION_TYPE":"U",
       "NORAD_CAT_ID":"51283",
       "ELEMENT_SET_NO":"999",
       "REV_AT_EPOCH":"115",
       "BSTAR":"0.00033595000000",
       "MEAN_MOTION_DOT":"0.17880191",
       "MEAN_MOTION_DDOT":"0.0000124090000",
       "SEMIMAJOR_AXIS":"6532.976",
       "PERIOD":"87.584",
       "APOAPSIS":"173.762",
       "PERIAPSIS":"135.919",
       "OBJECT_TYPE":"DEBRIS",
       "RCS_SIZE":"LARGE",
       "COUNTRY_CODE":"US",
       "LAUNCH_DATE":"2021-12-21",
       "SITE":"AFETR",
       "DECAY_DATE":"2022-02-01",
       "FILE":"3288776",
       "GP_ID":"195031719",
       "TLE_LINE0":"0 DRAGON CRS-24 DEB",
       "TLE_LINE1":"1 51283U 21127B   22031.92998531  .17880191  12409-4  33595-3 0  9999",
       "TLE_LINE2":"2 51283  51.6384 287.5343 0028963 102.4546 258.5101 16.44130108  1157"
    },
    {
       "CCSDS_OMM_VERS":"2.0",
       "COMMENT":"GENERATED VIA SPACE-TRACK.ORG API",
       "CREATION_DATE":"2022-02-12T21:56:12",
       "ORIGINATOR":"18 SPCS",
       "OBJECT_NAME":"STARLINK-3XXX",
       "OBJECT_ID":"2022-010Q",
       "CENTER_NAME":"EARTH",
       "REF_FRAME":"TEME",
       "TIME_SYSTEM":"UTC",
       "MEAN_ELEMENT_THEORY":"SGP4",
       "EPOCH":"2022-02-12T15:46:47.453088",
       "MEAN_MOTION":"16.43396970",
       "ECCENTRICITY":"0.00149940",
       "INCLINATION":"53.2035",
       "RA_OF_ASC_NODE":"127.3150",
       "ARG_OF_PERICENTER":"203.4139",
       "MEAN_ANOMALY":"311.6420",
       "EPHEMERIS_TYPE":"0",
       "CLASSIFICATION_TYPE":"U",
       "NORAD_CAT_ID":"51470",
       "ELEMENT_SET_NO":"999",
       "REV_AT_EPOCH":"223",
       "BSTAR":"0.00026598000000",
       "MEAN_MOTION_DOT":"0.08378202",
       "MEAN_MOTION_DDOT":"0.0000122240000",
       "SEMIMAJOR_AXIS":"6534.919",
       "PERIOD":"87.623",
       "APOAPSIS":"166.582",
       "PERIAPSIS":"146.985",
       "OBJECT_TYPE":"PAYLOAD",
       "RCS_SIZE":"LARGE",
       "COUNTRY_CODE":"US",
       "LAUNCH_DATE":"2022-02-03",
       "SITE":"AFETR",
       "DECAY_DATE":"2022-02-12",
       "FILE":"3298605",
       "GP_ID":"195825495",
       "TLE_LINE0":"0 STARLINK-3XXX",
       "TLE_LINE1":"1 51470U 22010Q   22043.65749367  .08378202  12224-4  26598-3 0  9998",
       "TLE_LINE2":"2 51470  53.2035 127.3150 0014994 203.4139 311.6420 16.43396970  2237"
    }
 ]